NORAD_CAT_ID,OBJECT_NAME,OBJECT_TYPE,EPOCH,MEAN_MOTION,ECCENTRICITY,INCLINATION,RA_OF_ASC_NODE,ARG_OF_PERICENTER,MEAN_ANOMALY,BSTAR,MEAN_MOTION_DOT,MEAN_MOTION_DDOT,TLE_LINE0,TLE_LINE1,TLE_LINE2,SEMIMAJOR_AXIS,PERIOD,APOGEE,PERIGEE,DECAYED
55656.0,STARLINK-5326,PAYLOAD,2023-06-16 22:00:00,15.18749967,0.0003286,69.9981,177.9049,266.3818,267.9623,-0.045989,-0.00889734,0.0,0 STARLINK-5326,1 55656U 23021AE  23167.91667824 -.00889734  00000-0 -45989-1 0  9994,2 55656  69.9981 177.9049 0003286 266.3818 267.9623 15.18749967  1307,6887.754,94.815,511.883,507.356,0.0
55656.0,STARLINK-5326,PAYLOAD,2023-06-17 06:00:02,15.18105294,0.0003311,69.9983,177.0376,269.1065,286.8981,-0.048869,-0.00925229,0.0,0 STARLINK-5326,1 55656U 23021AE  23168.25002315 -.00925229  00000-0 -48869-1 0  9990,2 55656  69.9983 177.0376 0003311 269.1065 286.8981 15.18105294 19223,6889.704,94.855,513.85,509.288,0.0
55656.0,STARLINK-5326,PAYLOAD,2023-06-17 08:19:01,15.19609495,0.0003686,69.9973,176.7914,291.7485,68.3293,-0.012516,-0.00258184,0.0,0 STARLINK-5326,1 55656U 23021AE  23168.34654849 -.00258184  00000-0 -12516-1 0  9994,2 55656  69.9973 176.7914 0003686 291.7485  68.3293 15.19609495 19545,6885.157,94.761,509.56,504.484,0.0
55656.0,STARLINK-5326,PAYLOAD,2023-06-17 22:00:01,15.16795527,0.0003339,69.998,175.3062,265.1764,331.655,-0.048863,-0.00893292,0.0,0 STARLINK-5326,1 55656U 23021AE  23168.91668981 -.00893292  00000-0 -48863-1 0  9998,2 55656  69.9980 175.3062 0003339 265.1764 331.6550 15.16795527  1308,6893.67,94.937,517.837,513.233,0.0
55656.0,STARLINK-5326,PAYLOAD,2023-06-18 14:00:01,15.15524459,0.0003345,69.9979,173.578,271.5343,2.9948,-0.054965,-0.00963305,0.0,0 STARLINK-5326,1 55656U 23021AE  23169.58335648 -.00963305  00000-0 -54965-1 0  9996,2 55656  69.9979 173.5780 0003345 271.5343   2.9948 15.15524459 19428,6897.524,95.017,521.696,517.082,0.0
55656.0,STARLINK-5326,PAYLOAD,2023-06-18 22:00:00,15.14843843,0.0003405,69.9981,172.7154,264.8792,27.2713,-0.052099,-0.00900368,0.0,0 STARLINK-5326,1 55656U 23021AE  23169.91667824 -.00900368  00000-0 -52099-1 0  9993,2 55656  69.9981 172.7154 0003405 264.8792  27.2713 15.14843843  1305,6899.59,95.059,523.804,519.105,0.0
55656.0,STARLINK-5326,PAYLOAD,2023-06-19 06:00:00,15.14186883,0.0003421,69.9983,171.8535,270.5747,38.4833,-0.054017,-0.0091517,0.0,0 STARLINK-5326,1 55656U 23021AE  23170.25001157 -.00915170  00000-0 -54017-1 0  9992,2 55656  69.9983 171.8535 0003421 270.5747  38.4833 15.14186883 19537,6901.585,95.101,525.811,521.089,0.0
55656.0,STARLINK-5326,PAYLOAD,2023-06-19 10:59:47,15.15523623,0.0002949,69.9984,171.3244,299.1931,60.8942,-0.014917,-0.00273063,0.0,0 STARLINK-5326,1 55656U 23021AE  23170.45819229 -.00273063  00000-0 -14917-1 0  9994,2 55656  69.9984 171.3244 0002949 299.1931  60.8942 15.15523623 19567,6897.526,95.017,521.425,517.357,0.0
55656.0,STARLINK-5326,PAYLOAD,2023-06-19 22:00:00,15.1288701,0.0003446,69.9982,170.1324,266.996,73.4991,-0.055105,-0.00901122,0.0,0 STARLINK-5326,1 55656U 23021AE  23170.91667824 -.00901122  00000-0 -55105-1 0  9995,2 55656  69.9982 170.1324 0003446 266.9960  73.4991 15.12887010 19630,6905.538,95.182,529.783,525.023,0.0
55656.0,STARLINK-5326,PAYLOAD,2023-06-20 14:00:01,15.11613533,0.0003406,69.9983,168.4146,273.1254,95.6815,-0.061738,-0.00968673,0.0,0 STARLINK-5326,1 55656U 23021AE  23171.58334491 -.00968673  00000-0 -61738-1 0  9993,2 55656  69.9983 168.4146 0003406 273.1254  95.6815 15.11613533 19733,6909.416,95.262,533.634,528.927,0.0
55656.0,STARLINK-5326,PAYLOAD,2023-06-20 22:00:00,15.10933374,0.0003442,69.9985,167.5571,267.1003,114.6972,-0.058556,-0.00906334,0.0,0 STARLINK-5326,1 55656U 23021AE  23171.91667824 -.00906334  00000-0 -58556-1 0  9999,2 55656  69.9985 167.5571 0003442 267.1003 114.6972 15.10933374  1309,6911.489,95.305,535.733,530.975,0.0
55656.0,STARLINK-5326,PAYLOAD,2023-06-21 06:00:00,15.10272276,0.0003421,69.9989,166.7004,271.0491,122.9627,-0.060071,-0.00912423,0.0,0 STARLINK-5326,1 55656U 23021AE  23172.25001157 -.00912423  00000-0 -60071-1 0  9999,2 55656  69.9989 166.7004 0003421 271.0491 122.9627 15.10272276 19830,6913.506,95.347,537.736,533.006,0.0
55656.0,STARLINK-5326,PAYLOAD,2023-06-21 14:00:01,15.09655652,0.000336,69.9986,165.8446,272.8626,132.5547,-0.065047,-0.00966796,0.0,0 STARLINK-5326,1 55656U 23021AE  23172.58334491 -.00966796  00000-0 -65047-1 0  9995,2 55656  69.9986 165.8446 0003360 272.8626 132.5547 15.09655652  1300,6915.388,95.386,539.577,534.93,0.0
55656.0,STARLINK-5326,PAYLOAD,2023-06-21 22:00:01,15.08981537,0.0003372,69.9988,164.9897,268.1742,147.9474,-0.062368,-0.00914051,0.0,0 STARLINK-5326,1 55656U 23021AE  23172.91668981 -.00914051  00000-0 -62368-1 0  9996,2 55656  69.9988 164.9897 0003372 268.1742 147.9474 15.08981537  1304,6917.448,95.429,541.645,536.98,0.0
55656.0,STARLINK-5326,PAYLOAD,2023-06-22 06:00:00,15.08314153,0.0003361,69.9991,164.1356,273.5292,152.399,-0.063212,-0.00909933,0.0,0 STARLINK-5326,1 55656U 23021AE  23173.25001157 -.00909933  00000-0 -63212-1 0  9992,2 55656  69.9991 164.1356 0003361 273.5292 152.3990 15.08314153 19988,6919.488,95.471,543.679,539.028,0.0
55656.0,STARLINK-5326,PAYLOAD,2023-06-23 06:00:00,15.06351685,0.0003282,69.9992,161.5785,273.391,177.4147,-0.065914,-0.00900173,0.0,0 STARLINK-5326,1 55656U 23021AE  23174.25001157 -.00900173  00000-0 -65914-1 0  9991,2 55656  69.9992 161.5785 0003282 273.3910 177.4147 15.06351685 20133,6925.497,95.595,549.635,545.089,0.0
55656.0,STARLINK-5326,PAYLOAD,2023-06-23 22:00:01,15.05077875,0.0003264,69.9994,159.8781,269.6441,193.8782,-0.070658,-0.00929926,0.0,0 STARLINK-5326,1 55656U 23021AE  23174.91668981 -.00929926  00000-0 -70658-1 0  9996,2 55656  69.9994 159.8781 0003264 269.6441 193.8782 15.05077875 20231,6929.404,95.676,553.53,549.007,0.0
55656.0,STARLINK-5326,PAYLOAD,2023-06-25 06:00:00,15.02434751,0.0003241,69.9994,156.4877,274.1782,205.2566,-0.072374,-0.00890527,0.0,0 STARLINK-5326,1 55656U 23021AE  23176.25001157 -.00890527  00000-0 -72374-1 0  9992,2 55656  69.9994 156.4877 0003241 274.1782 205.2566 15.02434751 20431,6937.528,95.844,561.642,557.145,0.0
55656.0,STARLINK-5326,PAYLOAD,2023-06-25 22:00:01,15.01170761,0.000315,69.9995,154.7977,269.4755,213.2868,-0.079426,-0.00951823,0.0,0 STARLINK-5326,1 55656U 23021AE  23176.91668981 -.00951823  00000-0 -79426-1 0  9991,2 55656  69.9995 154.7977 0003150 269.4755 213.2868 15.01170761 20532,6941.422,95.925,565.473,561.1,0.0
55656.0,STARLINK-5326,PAYLOAD,2023-06-26 14:00:01,14.99764098,0.0002948,69.999,153.1111,273.7717,209.1097,-0.058269,-0.00673863,0.0,0 STARLINK-5326,1 55656U 23021AE  23177.58334491 -.00673863  00000-0 -58269-1 0  9998,2 55656  69.9990 153.1111 0002948 273.7717 209.1097 14.99764098 20637,6945.762,96.015,569.674,565.579,0.0
55656.0,STARLINK-5326,PAYLOAD,2023-06-27 02:00:01,14.99079402,0.0003076,69.9993,151.8483,270.2857,30.7812,-0.079042,-0.00890296,0.0,0 STARLINK-5326,1 55656U 23021AE  23178.08334491 -.00890296  00000-0 -79042-1 0  9997,2 55656  69.9993 151.8483 0003076 270.2857  30.7812 14.99079402 20717,6947.876,96.059,571.879,567.604,0.0
55656.0,STARLINK-5326,PAYLOAD,2023-06-27 14:00:01,14.98323775,0.0002933,69.999,150.587,273.6609,204.1422,-0.0032014,-0.00038079,0.0,0 STARLINK-5326,1 55656U 23021AE  23178.58334491 -.00038079  00000-0 -32014-2 0  9994,2 55656  69.9990 150.5870 0002933 273.6609 204.1422 14.98323775 20788,6950.212,96.107,574.116,570.039,0.0
55656.0,STARLINK-5326,PAYLOAD,2023-06-28 06:00:00,14.98304537,0.0002968,69.9998,148.9061,274.6645,198.0665,0.0018884,0.00022497,0.0,0 STARLINK-5326,1 55656U 23021AE  23179.25001157  .00022497  00000-0  18884-2 0  9993,2 55656  69.9998 148.9061 0002968 274.6645 198.0665 14.98304537 20884,6950.272,96.109,574.199,570.074,0.0
55656.0,STARLINK-5326,PAYLOAD,2023-06-28 14:00:01,14.98338437,0.000291,69.9995,148.0656,272.4526,197.7402,-0.0033529,-0.00039881,0.0,0 STARLINK-5326,1 55656U 23021AE  23179.58334491 -.00039881  00000-0 -33529-2 0  9999,2 55656  69.9995 148.0656 0002910 272.4526 197.7402 14.98338437 20930,6950.167,96.106,574.054,570.009,0.0
55656.0,STARLINK-5326,PAYLOAD,2023-06-29 22:00:00,14.98348417,0.0002957,69.9997,144.7036,266.0365,194.0888,0.00096723,0.00011472,0.0,0 STARLINK-5326,1 55656U 23021AE  23180.91667824  .00011472  00000-0  96723-3 0  9997,2 55656  69.9997 144.7036 0002957 266.0365 194.0888 14.98348417 21138,6950.136,96.106,574.056,569.946,0.0
55656.0,STARLINK-5326,PAYLOAD,2023-07-01 07:12:06,14.98334861,0.0002874,69.999,141.2157,269.1039,90.979,6.727e-05,7.1e-06,0.0,0 STARLINK-5326,1 55656U 23021AE  23182.30007535  .00000710  00000-0  67270-4 0  9998,2 55656  69.9990 141.2157 0002874 269.1039  90.9790 14.98334861 21344,6950.178,96.107,574.04,570.045,0.0
55656.0,STARLINK-5326,PAYLOAD,2023-07-02 07:14:07,14.98337938,0.0002764,69.9993,138.6916,268.8217,91.2625,-3.5527e-05,-5.17e-06,0.0,0 STARLINK-5326,1 55656U 23021AE  23183.30147188 -.00000517  00000-0 -35527-4 0  9995,2 55656  69.9993 138.6916 0002764 268.8217  91.2625 14.98337938 21497,6950.168,96.106,573.954,570.112,0.0
55656.0,STARLINK-5326,PAYLOAD,2023-07-03 07:16:07,14.98337398,0.0002773,69.9994,136.1672,267.0456,93.0386,2.8365e-05,2.46e-06,0.0,0 STARLINK-5326,1 55656U 23021AE  23184.30286571  .00000246  00000-0  28365-4 0  9995,2 55656  69.9994 136.1672 0002773 267.0456  93.0386 14.98337398 21647,6950.17,96.107,573.962,570.108,0.0
55656.0,STARLINK-5326,PAYLOAD,2023-07-03 13:40:40,14.98331169,0.0002741,69.9995,135.4939,267.5045,92.58,-3.6733e-05,-5.31e-06,0.0,0 STARLINK-5326,1 55656U 23021AE  23184.56991048 -.00000531  00000-0 -36733-4 0  9992,2 55656  69.9995 135.4939 0002741 267.5045  92.5800 14.98331169 21689,6950.189,96.107,573.959,570.149,0.0
55656.0,STARLINK-5326,PAYLOAD,2023-07-05 00:55:34,14.98365043,0.0002303,69.9998,131.7908,251.6154,108.4755,0.00032124,3.745e-05,0.0,0 STARLINK-5326,1 55656U 23021AE  23186.03859520  .00003745  00000-0  32124-3 0  9991,2 55656  69.9998 131.7908 0002303 251.6154 108.4755 14.98365043 21905,6950.085,96.105,573.55,570.349,0.0
